{
  "type": "FeatureCollection",
  "features": [
    {
      "type": "Feature",
      "properties": {
        "norad_id": 41434,
        "name": "BEIDOU-2 IGSO-6 (C13)",
        "group": "beidou",
        "lat": -19.68438044942156,
        "lon": 28.045300966249187,
        "alt_km": 35860.59780349092,
        "timestamp": "2025-12-08T13:49:32.057668+00:00",
        "meta_object_name": "BEIDOU-2 IGSO-6 (C13)",
        "meta_object_id": "2016-021A",
        "meta_epoch": "2025-12-01T15:57:35.287200",
        "meta_mean_motion": 1.00256562,
        "meta_eccentricity": 0.00591323,
        "meta_inclination": 59.9483,
        "meta_ra_of_asc_node": 40.0119,
        "meta_arg_of_pericenter": 231.2834,
        "meta_mean_anomaly": 130.8807,
        "meta_ephemeris_type": 0,
        "meta_classification_type": "U",
        "meta_norad_cat_id": 41434,
        "meta_element_set_no": 999,
        "meta_rev_at_epoch": 3550,
        "meta_bstar": 0,
        "meta_mean_motion_dot": -1.55e-06,
        "meta_mean_motion_ddot": 0,
        "tle_line1": "1 41434U 16021A   25335.66499175 -.00000155  00000+0  00000+0 0  9991",
        "tle_line2": "2 41434  59.9483  40.0119 0059132 231.2834 130.8807  1.00256562 35501"
      },
      "geometry": {
        "type": "Point",
        "coordinates": [
          28.045300966249187,
          -19.68438044942156
        ]
      }
    },
    {
      "type": "Feature",
      "properties": {
        "norad_id": 41586,
        "name": "BEIDOU-2 G7 (C03)",
        "group": "beidou",
        "lat": -0.9174652645074635,
        "lon": 35.41843844305758,
        "alt_km": 35771.137259796706,
        "timestamp": "2025-12-08T13:49:32.057696+00:00",
        "meta_object_name": "BEIDOU-2 G7 (C03)",
        "meta_object_id": "2016-037A",
        "meta_epoch": "2025-12-08T07:16:51.079872",
        "meta_mean_motion": 1.00269333,
        "meta_eccentricity": 0.00044434,
        "meta_inclination": 1.7461,
        "meta_ra_of_asc_node": 67.7601,
        "meta_arg_of_pericenter": 0.4598,
        "meta_mean_anomaly": 228.7804,
        "meta_ephemeris_type": 0,
        "meta_classification_type": "U",
        "meta_norad_cat_id": 41586,
        "meta_element_set_no": 999,
        "meta_rev_at_epoch": 497,
        "meta_bstar": 0,
        "meta_mean_motion_dot": -3.51e-06,
        "meta_mean_motion_ddot": 0,
        "tle_line1": "1 41586U 16037A   25342.30336898 -.00000351  00000+0  00000+0 0  9995",
        "tle_line2": "2 41586   1.7461  67.7601 0004443   0.4598 228.7804  1.00269333  4971"
      },
      "geometry": {
        "type": "Point",
        "coordinates": [
          35.41843844305758,
          -0.9174652645074635
        ]
      }
    },
    {
      "type": "Feature",
      "properties": {
        "norad_id": 43001,
        "name": "BEIDOU-3 M1 (C19)",
        "group": "beidou",
        "lat": 33.6879194586897,
        "lon": 95.5143970004766,
        "alt_km": 21527.45153928776,
        "timestamp": "2025-12-08T13:49:32.057710+00:00",
        "meta_object_name": "BEIDOU-3 M1 (C19)",
        "meta_object_id": "2017-069A",
        "meta_epoch": "2025-12-07T10:33:38.997216",
        "meta_mean_motion": 1.86230818,
        "meta_eccentricity": 0.00090499,
        "meta_inclination": 56.5227,
        "meta_ra_of_asc_node": 69.4088,
        "meta_arg_of_pericenter": 303.7178,
        "meta_mean_anomaly": 56.2144,
        "meta_ephemeris_type": 0,
        "meta_classification_type": "U",
        "meta_norad_cat_id": 43001,
        "meta_element_set_no": 999,
        "meta_rev_at_epoch": 5503,
        "meta_bstar": 0,
        "meta_mean_motion_dot": -4.4e-07,
        "meta_mean_motion_ddot": 0,
        "tle_line1": "1 43001U 17069A   25341.44003469 -.00000044  00000+0  00000+0 0  9993",
        "tle_line2": "2 43001  56.5227  69.4088 0009049 303.7178  56.2144  1.86230818 55035"
      },
      "geometry": {
        "type": "Point",
        "coordinates": [
          95.5143970004766,
          33.6879194586897
        ]
      }
    },
    {
      "type": "Feature",
      "properties": {
        "norad_id": 43002,
        "name": "BEIDOU-3 M2 (C20)",
        "group": "beidou",
        "lat": 55.909078355063144,
        "lon": 146.91533902586505,
        "alt_km": 21528.335832544308,
        "timestamp": "2025-12-08T13:49:32.057723+00:00",
        "meta_object_name": "BEIDOU-3 M2 (C20)",
        "meta_object_id": "2017-069B",
        "meta_epoch": "2025-12-07T21:58:05.782944",
        "meta_mean_motion": 1.86230666,
        "meta_eccentricity": 0.00063719,
        "meta_inclination": 56.5222,
        "meta_ra_of_asc_node": 69.4295,
        "meta_arg_of_pericenter": 330.8789,
        "meta_mean_anomaly": 29.1054,
        "meta_ephemeris_type": 0,
        "meta_classification_type": "U",
        "meta_norad_cat_id": 43002,
        "meta_element_set_no": 999,
        "meta_rev_at_epoch": 5503,
        "meta_bstar": 0,
        "meta_mean_motion_dot": -4.4e-07,
        "meta_mean_motion_ddot": 0,
        "tle_line1": "1 43002U 17069B   25341.91534471 -.00000044  00000+0  00000+0 0  9998",
        "tle_line2": "2 43002  56.5222  69.4295 0006371 330.8789  29.1054  1.86230666 55035"
      },
      "geometry": {
        "type": "Point",
        "coordinates": [
          146.91533902586505,
          55.909078355063144
        ]
      }
    },
    {
      "type": "Feature",
      "properties": {
        "norad_id": 43107,
        "name": "BEIDOU-3 M7 (C27)",
        "group": "beidou",
        "lat": -51.94571060106187,
        "lon": -165.3957219639851,
        "alt_km": 21541.13717192259,
        "timestamp": "2025-12-08T13:49:32.057734+00:00",
        "meta_object_name": "BEIDOU-3 M7 (C27)",
        "meta_object_id": "2018-003A",
        "meta_epoch": "2025-12-08T04:41:21.323616",
        "meta_mean_motion": 1.86232307,
        "meta_eccentricity": 0.00027231,
        "meta_inclination": 54.5008,
        "meta_ra_of_asc_node": 308.973,
        "meta_arg_of_pericenter": 69.0178,
        "meta_mean_anomaly": 290.9986,
        "meta_ephemeris_type": 0,
        "meta_classification_type": "U",
        "meta_norad_cat_id": 43107,
        "meta_element_set_no": 999,
        "meta_rev_at_epoch": 5379,
        "meta_bstar": 0,
        "meta_mean_motion_dot": -7.3e-07,
        "meta_mean_motion_ddot": 0,
        "tle_line1": "1 43107U 18003A   25342.19538569 -.00000073  00000+0  00000+0 0  9998",
        "tle_line2": "2 43107  54.5008 308.9730 0002723  69.0178 290.9986  1.86232307 53793"
      },
      "geometry": {
        "type": "Point",
        "coordinates": [
          -165.3957219639851,
          -51.94571060106187
        ]
      }
    },
    {
      "type": "Feature",
      "properties": {
        "norad_id": 43108,
        "name": "BEIDOU-3 M8 (C28)",
        "group": "beidou",
        "lat": -48.928150662157975,
        "lon": -106.02777869714966,
        "alt_km": 21520.863536940222,
        "timestamp": "2025-12-08T13:49:32.057746+00:00",
        "meta_object_name": "BEIDOU-3 M8 (C28)",
        "meta_object_id": "2018-003B",
        "meta_epoch": "2025-12-07T14:28:44.838336",
        "meta_mean_motion": 1.86230783,
        "meta_eccentricity": 0.00047344,
        "meta_inclination": 54.4942,
        "meta_ra_of_asc_node": 308.9763,
        "meta_arg_of_pericenter": 275.286,
        "meta_mean_anomaly": 84.6457,
        "meta_ephemeris_type": 0,
        "meta_classification_type": "U",
        "meta_norad_cat_id": 43108,
        "meta_element_set_no": 999,
        "meta_rev_at_epoch": 5379,
        "meta_bstar": 0,
        "meta_mean_motion_dot": -7.2e-07,
        "meta_mean_motion_ddot": 0,
        "tle_line1": "1 43108U 18003B   25341.60329674 -.00000072  00000+0  00000+0 0  9998",
        "tle_line2": "2 43108  54.4942 308.9763 0004734 275.2860  84.6457  1.86230783 53796"
      },
      "geometry": {
        "type": "Point",
        "coordinates": [
          -106.02777869714966,
          -48.928150662157975
        ]
      }
    },
    {
      "type": "Feature",
      "properties": {
        "norad_id": 43207,
        "name": "BEIDOU-3 M4 (C22)",
        "group": "beidou",
        "lat": -3.432101913228102,
        "lon": 67.17782160894944,
        "alt_km": 21518.101834874524,
        "timestamp": "2025-12-08T13:49:32.057758+00:00",
        "meta_object_name": "BEIDOU-3 M4 (C22)",
        "meta_object_id": "2018-018A",
        "meta_epoch": "2025-12-02T03:19:43.852800",
        "meta_mean_motion": 1.86230706,
        "meta_eccentricity": 0.00040749,
        "meta_inclination": 56.4768,
        "meta_ra_of_asc_node": 69.6557,
        "meta_arg_of_pericenter": 15.1369,
        "meta_mean_anomaly": 344.8773,
        "meta_ephemeris_type": 0,
        "meta_classification_type": "U",
        "meta_norad_cat_id": 43207,
        "meta_element_set_no": 999,
        "meta_rev_at_epoch": 5307,
        "meta_bstar": 0,
        "meta_mean_motion_dot": -4.5e-07,
        "meta_mean_motion_ddot": 0,
        "tle_line1": "1 43207U 18018A   25336.13870200 -.00000045  00000+0  00000+0 0  9992",
        "tle_line2": "2 43207  56.4768  69.6557 0004074  15.1369 344.8773  1.86230706 53076"
      },
      "geometry": {
        "type": "Point",
        "coordinates": [
          67.17782160894944,
          -3.432101913228102
        ]
      }
    }
  ]
}